<?xml version="1.0" encoding="UTF-8"?>
<gpx creator="StravaGPX" version="1.1" xmlns="http://www.topografix.com/GPX/1/1" xmlns:xsi="http://www.w3.org/2001/XMLSchema-instance" xsi:schemaLocation="http://www.topografix.com/GPX/1/1 http://www.topografix.com/GPX/1/1/gpx.xsd">
 <metadata>
  <name>War on Cars Bike Tour (11/3/26)</name>
  <author>
   <name>Christian Schick</name>
   <link href="https://www.strava.com/athletes/10540420"/>
  </author>
  <copyright author="OpenStreetMap contributors">
   <year>2020</year>
   <license>https://www.openstreetmap.org/copyright</license>
  </copyright>
  <link href="https://www.strava.com/routes/3530019021526886288"/>
 </metadata>
 <trk>
  <name>War on Cars Bike Tour (11/3/26)</name>
  <link href="https://www.strava.com/routes/3530019021526886288"/>
  <type>cycling</type>
  <trkseg>
   <trkpt lat="37.53539" lon="-77.43388">
    <ele>19.17</ele>
   </trkpt>
   <trkpt lat="37.53496000224066" lon="-77.43316499601919">
    <ele>14.17</ele>
   </trkpt>
   <trkpt lat="37.534530000000004" lon="-77.43245">
    <ele>11.61</ele>
   </trkpt>
   <trkpt lat="37.53416" lon="-77.43255">
    <ele>10.64</ele>
   </trkpt>
   <trkpt lat="37.53334" lon="-77.43275000000001">
    <ele>9.290000000000001</ele>
   </trkpt>
   <trkpt lat="37.53287000249225" lon="-77.43196499487644">
    <ele>7.46</ele>
   </trkpt>
   <trkpt lat="37.5324" lon="-77.43118000000001">
    <ele>7.3500000000000005</ele>
   </trkpt>
   <trkpt lat="37.532340000000005" lon="-77.43097">
    <ele>7.07</ele>
   </trkpt>
   <trkpt lat="37.532320000000006" lon="-77.43075">
    <ele>7.03</ele>
   </trkpt>
   <trkpt lat="37.5324" lon="-77.4302">
    <ele>6.790000000000001</ele>
   </trkpt>
   <trkpt lat="37.53238" lon="-77.42999">
    <ele>6.3500000000000005</ele>
   </trkpt>
   <trkpt lat="37.532270000000004" lon="-77.42965000000001">
    <ele>6.3100000000000005</ele>
   </trkpt>
   <trkpt lat="37.532070000000004" lon="-77.42932">
    <ele>6.46</ele>
   </trkpt>
   <trkpt lat="37.531870000000005" lon="-77.42887">
    <ele>6.750000000000001</ele>
   </trkpt>
   <trkpt lat="37.531580000000005" lon="-77.42837">
    <ele>6.82</ele>
   </trkpt>
   <trkpt lat="37.531530000000004" lon="-77.42846">
    <ele>6.750000000000001</ele>
   </trkpt>
   <trkpt lat="37.53148" lon="-77.42846">
    <ele>6.750000000000001</ele>
   </trkpt>
   <trkpt lat="37.531060000000004" lon="-77.42782000000001">
    <ele>6.65</ele>
   </trkpt>
   <trkpt lat="37.53051000320486" lon="-77.42694499351138">
    <ele>5.630000000000001</ele>
   </trkpt>
   <trkpt lat="37.52996" lon="-77.42607000000001">
    <ele>6.050000000000001</ele>
   </trkpt>
   <trkpt lat="37.529550001520114" lon="-77.42544999644011">
    <ele>6.0600000000000005</ele>
   </trkpt>
   <trkpt lat="37.529140000000005" lon="-77.42483">
    <ele>6.470000000000001</ele>
   </trkpt>
   <trkpt lat="37.52913" lon="-77.42462">
    <ele>6.51</ele>
   </trkpt>
   <trkpt lat="37.52904" lon="-77.42443">
    <ele>6.430000000000001</ele>
   </trkpt>
   <trkpt lat="37.528600003585595" lon="-77.42377999236602">
    <ele>6.2</ele>
   </trkpt>
   <trkpt lat="37.52816000360882" lon="-77.42312999240042">
    <ele>6.220000000000001</ele>
   </trkpt>
   <trkpt lat="37.52772" lon="-77.42248000000001">
    <ele>6.0600000000000005</ele>
   </trkpt>
   <trkpt lat="37.52728000176659" lon="-77.42184499635076">
    <ele>6.07</ele>
   </trkpt>
   <trkpt lat="37.52684" lon="-77.42121">
    <ele>6.410000000000001</ele>
   </trkpt>
   <trkpt lat="37.52676" lon="-77.42117">
    <ele>6.410000000000001</ele>
   </trkpt>
   <trkpt lat="37.526700000000005" lon="-77.42121">
    <ele>6.2</ele>
   </trkpt>
   <trkpt lat="37.52667" lon="-77.42120000000001">
    <ele>6.2</ele>
   </trkpt>
   <trkpt lat="37.52648000000001" lon="-77.42098">
    <ele>6.16</ele>
   </trkpt>
   <trkpt lat="37.526160000000004" lon="-77.42075000000001">
    <ele>6.12</ele>
   </trkpt>
   <trkpt lat="37.52622" lon="-77.42065000000001">
    <ele>6.12</ele>
   </trkpt>
   <trkpt lat="37.52626" lon="-77.42057000000001">
    <ele>6.21</ele>
   </trkpt>
   <trkpt lat="37.526630000000004" lon="-77.41995">
    <ele>10.450000000000001</ele>
   </trkpt>
   <trkpt lat="37.52695500109175" lon="-77.4194250024007">
    <ele>19.450000000000003</ele>
   </trkpt>
   <trkpt lat="37.527280000000005" lon="-77.41890000000001">
    <ele>23.950000000000003</ele>
   </trkpt>
   <trkpt lat="37.52761" lon="-77.41900000000001">
    <ele>26.29</ele>
   </trkpt>
   <trkpt lat="37.527710000000006" lon="-77.41874">
    <ele>29.450000000000003</ele>
   </trkpt>
   <trkpt lat="37.527680000000004" lon="-77.41866">
    <ele>29.450000000000003</ele>
   </trkpt>
   <trkpt lat="37.527570000000004" lon="-77.41865">
    <ele>29.450000000000003</ele>
   </trkpt>
   <trkpt lat="37.527420000000006" lon="-77.41852">
    <ele>32.120000000000005</ele>
   </trkpt>
   <trkpt lat="37.527460000000005" lon="-77.41845">
    <ele>32.160000000000004</ele>
   </trkpt>
   <trkpt lat="37.527550000000005" lon="-77.41838000000001">
    <ele>33.32</ele>
   </trkpt>
   <trkpt lat="37.527660000000004" lon="-77.41833000000001">
    <ele>35.0</ele>
   </trkpt>
   <trkpt lat="37.527770000000004" lon="-77.4183">
    <ele>35.0</ele>
   </trkpt>
   <trkpt lat="37.5281" lon="-77.41839">
    <ele>38.760000000000005</ele>
   </trkpt>
   <trkpt lat="37.528180000000006" lon="-77.41834">
    <ele>39.190000000000005</ele>
   </trkpt>
   <trkpt lat="37.52819" lon="-77.4183">
    <ele>39.190000000000005</ele>
   </trkpt>
   <trkpt lat="37.52816" lon="-77.41820000000001">
    <ele>39.95</ele>
   </trkpt>
   <trkpt lat="37.52788" lon="-77.41797000000001">
    <ele>42.9</ele>
   </trkpt>
   <trkpt lat="37.527770000000004" lon="-77.4178">
    <ele>45.33</ele>
   </trkpt>
   <trkpt lat="37.527730000000005" lon="-77.41766000000001">
    <ele>45.45</ele>
   </trkpt>
   <trkpt lat="37.52763" lon="-77.41768">
    <ele>45.45</ele>
   </trkpt>
   <trkpt lat="37.527350000000006" lon="-77.41789">
    <ele>44.89000000000001</ele>
   </trkpt>
   <trkpt lat="37.52714" lon="-77.41797000000001">
    <ele>44.9</ele>
   </trkpt>
   <trkpt lat="37.527010000000004" lon="-77.41794">
    <ele>45.03</ele>
   </trkpt>
   <trkpt lat="37.52687" lon="-77.41781">
    <ele>45.07000000000001</ele>
   </trkpt>
   <trkpt lat="37.52684" lon="-77.41784000000001">
    <ele>45.07000000000001</ele>
   </trkpt>
   <trkpt lat="37.52678" lon="-77.41781">
    <ele>45.11000000000001</ele>
   </trkpt>
   <trkpt lat="37.52673" lon="-77.41776">
    <ele>45.11000000000001</ele>
   </trkpt>
   <trkpt lat="37.52673" lon="-77.41767">
    <ele>45.1</ele>
   </trkpt>
   <trkpt lat="37.526770000000006" lon="-77.41760000000001">
    <ele>45.1</ele>
   </trkpt>
   <trkpt lat="37.52626" lon="-77.41677">
    <ele>44.29</ele>
   </trkpt>
   <trkpt lat="37.526270000000004" lon="-77.41669">
    <ele>44.29</ele>
   </trkpt>
   <trkpt lat="37.526140000000005" lon="-77.41647">
    <ele>44.27</ele>
   </trkpt>
   <trkpt lat="37.52615" lon="-77.41648">
    <ele>44.26</ele>
   </trkpt>
   <trkpt lat="37.526270000000004" lon="-77.41669">
    <ele>44.29</ele>
   </trkpt>
   <trkpt lat="37.52626" lon="-77.41677">
    <ele>44.36</ele>
   </trkpt>
   <trkpt lat="37.526770000000006" lon="-77.41760000000001">
    <ele>44.97</ele>
   </trkpt>
   <trkpt lat="37.52682" lon="-77.41758">
    <ele>45.230000000000004</ele>
   </trkpt>
   <trkpt lat="37.52685" lon="-77.41759">
    <ele>45.230000000000004</ele>
   </trkpt>
   <trkpt lat="37.526900000000005" lon="-77.41763">
    <ele>45.230000000000004</ele>
   </trkpt>
   <trkpt lat="37.52753250467348" lon="-77.4170225154476">
    <ele>46.910000000000004</ele>
   </trkpt>
   <trkpt lat="37.52816500623538" lon="-77.4164150205932">
    <ele>47.21</ele>
   </trkpt>
   <trkpt lat="37.528797504685585" lon="-77.41580751543646">
    <ele>46.59</ele>
   </trkpt>
   <trkpt lat="37.529430000000005" lon="-77.41520000000001">
    <ele>46.01</ele>
   </trkpt>
   <trkpt lat="37.529872008784125" lon="-77.41592198287555">
    <ele>47.17</ele>
   </trkpt>
   <trkpt lat="37.530314013173125" lon="-77.41664397430796">
    <ele>49.36</ele>
   </trkpt>
   <trkpt lat="37.53075601316686" lon="-77.41736597429738">
    <ele>50.150000000000006</ele>
   </trkpt>
   <trkpt lat="37.53119800876524" lon="-77.418087982844">
    <ele>50.09</ele>
   </trkpt>
   <trkpt lat="37.53164" lon="-77.41881000000001">
    <ele>48.720000000000006</ele>
   </trkpt>
   <trkpt lat="37.53163" lon="-77.41882000000001">
    <ele>48.71</ele>
   </trkpt>
   <trkpt lat="37.53229500516223" lon="-77.41818001713712">
    <ele>47.31</ele>
   </trkpt>
   <trkpt lat="37.53296000687093" lon="-77.41754002286147">
    <ele>45.75000000000001</ele>
   </trkpt>
   <trkpt lat="37.53362500512592" lon="-77.41690001717264">
    <ele>44.14000000000001</ele>
   </trkpt>
   <trkpt lat="37.534290000000006" lon="-77.41626000000001">
    <ele>43.57</ele>
   </trkpt>
   <trkpt lat="37.53479" lon="-77.41581000000001">
    <ele>42.980000000000004</ele>
   </trkpt>
   <trkpt lat="37.53481" lon="-77.41574">
    <ele>42.980000000000004</ele>
   </trkpt>
   <trkpt lat="37.53502" lon="-77.41554000000001">
    <ele>42.7</ele>
   </trkpt>
   <trkpt lat="37.53504" lon="-77.41547000000001">
    <ele>42.72</ele>
   </trkpt>
   <trkpt lat="37.53508" lon="-77.41543">
    <ele>42.7</ele>
   </trkpt>
   <trkpt lat="37.535120000000006" lon="-77.41543">
    <ele>42.65</ele>
   </trkpt>
   <trkpt lat="37.53531" lon="-77.41525">
    <ele>42.730000000000004</ele>
   </trkpt>
   <trkpt lat="37.535360000000004" lon="-77.41525">
    <ele>42.730000000000004</ele>
   </trkpt>
   <trkpt lat="37.535856668529455" lon="-77.41478000626047">
    <ele>44.14000000000001</ele>
   </trkpt>
   <trkpt lat="37.53635333519628" lon="-77.4143100062604">
    <ele>45.19</ele>
   </trkpt>
   <trkpt lat="37.53685" lon="-77.41384000000001">
    <ele>47.71</ele>
   </trkpt>
   <trkpt lat="37.537490006257926" lon="-77.41323002095872">
    <ele>49.43</ele>
   </trkpt>
   <trkpt lat="37.538130009378364" lon="-77.4126200314467">
    <ele>50.31000000000001</ele>
   </trkpt>
   <trkpt lat="37.538770009361215" lon="-77.41201003146354">
    <ele>51.2</ele>
   </trkpt>
   <trkpt lat="37.539410006206325" lon="-77.41140002100889">
    <ele>50.760000000000005</ele>
   </trkpt>
   <trkpt lat="37.54005" lon="-77.41079">
    <ele>50.260000000000005</ele>
   </trkpt>
   <trkpt lat="37.5401" lon="-77.41069">
    <ele>50.31000000000001</ele>
   </trkpt>
   <trkpt lat="37.54017" lon="-77.41062000000001">
    <ele>50.43</ele>
   </trkpt>
   <trkpt lat="37.54043" lon="-77.41041000000001">
    <ele>50.18</ele>
   </trkpt>
   <trkpt lat="37.54043" lon="-77.41040000000001">
    <ele>50.260000000000005</ele>
   </trkpt>
   <trkpt lat="37.5405" lon="-77.41036000000001">
    <ele>50.260000000000005</ele>
   </trkpt>
   <trkpt lat="37.540580000000006" lon="-77.41034">
    <ele>50.45</ele>
   </trkpt>
   <trkpt lat="37.54059" lon="-77.41036000000001">
    <ele>50.440000000000005</ele>
   </trkpt>
   <trkpt lat="37.54064" lon="-77.41044000000001">
    <ele>50.34</ele>
   </trkpt>
   <trkpt lat="37.54063" lon="-77.41055">
    <ele>49.970000000000006</ele>
   </trkpt>
   <trkpt lat="37.540580000000006" lon="-77.4106">
    <ele>49.970000000000006</ele>
   </trkpt>
   <trkpt lat="37.540580000000006" lon="-77.41090000000001">
    <ele>49.150000000000006</ele>
   </trkpt>
   <trkpt lat="37.54107500869385" lon="-77.41172998343522">
    <ele>46.96</ele>
   </trkpt>
   <trkpt lat="37.54157001157867" lon="-77.41255997789129">
    <ele>45.660000000000004</ele>
   </trkpt>
   <trkpt lat="37.54206500865432" lon="-77.41338998336842">
    <ele>44.32000000000001</ele>
   </trkpt>
   <trkpt lat="37.54256" lon="-77.41422">
    <ele>43.02</ele>
   </trkpt>
   <trkpt lat="37.54308667297226" lon="-77.41508332116892">
    <ele>41.21</ele>
   </trkpt>
   <trkpt lat="37.54361333965934" lon="-77.41594665453552">
    <ele>38.74</ele>
   </trkpt>
   <trkpt lat="37.544140000000006" lon="-77.41681000000001">
    <ele>35.79</ele>
   </trkpt>
   <trkpt lat="37.544200000000004" lon="-77.41691">
    <ele>35.88</ele>
   </trkpt>
   <trkpt lat="37.54401" lon="-77.41705">
    <ele>35.68</ele>
   </trkpt>
   <trkpt lat="37.54384" lon="-77.41722">
    <ele>35.67</ele>
   </trkpt>
   <trkpt lat="37.543800000000005" lon="-77.41735000000001">
    <ele>35.67</ele>
   </trkpt>
   <trkpt lat="37.54316750458832" lon="-77.41795251533773">
    <ele>35.910000000000004</ele>
   </trkpt>
   <trkpt lat="37.54253500611539" lon="-77.41855502045223">
    <ele>36.95</ele>
   </trkpt>
   <trkpt lat="37.54190250458139" lon="-77.41915751534385">
    <ele>38.510000000000005</ele>
   </trkpt>
   <trkpt lat="37.541270000000004" lon="-77.41976000000001">
    <ele>39.64</ele>
   </trkpt>
   <trkpt lat="37.541090000000004" lon="-77.41981000000001">
    <ele>39.64</ele>
   </trkpt>
   <trkpt lat="37.540890000000005" lon="-77.41995">
    <ele>40.440000000000005</ele>
   </trkpt>
   <trkpt lat="37.540620000000004" lon="-77.42003000000001">
    <ele>40.93</ele>
   </trkpt>
   <trkpt lat="37.54074" lon="-77.42014">
    <ele>40.690000000000005</ele>
   </trkpt>
   <trkpt lat="37.54075" lon="-77.42026000000001">
    <ele>40.63</ele>
   </trkpt>
   <trkpt lat="37.54088" lon="-77.42043000000001">
    <ele>40.42</ele>
   </trkpt>
   <trkpt lat="37.54101" lon="-77.42068">
    <ele>40.38</ele>
   </trkpt>
   <trkpt lat="37.54117" lon="-77.42111000000001">
    <ele>40.440000000000005</ele>
   </trkpt>
   <trkpt lat="37.541250000000005" lon="-77.42156">
    <ele>40.800000000000004</ele>
   </trkpt>
   <trkpt lat="37.54126" lon="-77.42188">
    <ele>40.800000000000004</ele>
   </trkpt>
   <trkpt lat="37.541230000000006" lon="-77.42257000000001">
    <ele>40.900000000000006</ele>
   </trkpt>
   <trkpt lat="37.541230000000006" lon="-77.42263000000001">
    <ele>40.910000000000004</ele>
   </trkpt>
   <trkpt lat="37.54121500177954" lon="-77.42328000020999">
    <ele>41.35</ele>
   </trkpt>
   <trkpt lat="37.5412" lon="-77.42393000000001">
    <ele>41.52</ele>
   </trkpt>
   <trkpt lat="37.54121" lon="-77.42456">
    <ele>42.010000000000005</ele>
   </trkpt>
   <trkpt lat="37.541290000000004" lon="-77.42537">
    <ele>42.61</ele>
   </trkpt>
   <trkpt lat="37.541430000000005" lon="-77.42609">
    <ele>43.07</ele>
   </trkpt>
   <trkpt lat="37.5416" lon="-77.42676">
    <ele>43.64000000000001</ele>
   </trkpt>
   <trkpt lat="37.54173" lon="-77.42712">
    <ele>44.15</ele>
   </trkpt>
   <trkpt lat="37.542080000000006" lon="-77.42788">
    <ele>44.730000000000004</ele>
   </trkpt>
   <trkpt lat="37.5424750018764" lon="-77.42855499634744">
    <ele>44.89000000000001</ele>
   </trkpt>
   <trkpt lat="37.54287" lon="-77.42923">
    <ele>44.83</ele>
   </trkpt>
   <trkpt lat="37.542820000000006" lon="-77.42928">
    <ele>45.01</ele>
   </trkpt>
   <trkpt lat="37.543000000000006" lon="-77.42957000000001">
    <ele>45.11000000000001</ele>
   </trkpt>
   <trkpt lat="37.54312" lon="-77.42981">
    <ele>46.05</ele>
   </trkpt>
   <trkpt lat="37.543240000000004" lon="-77.43017">
    <ele>46.82</ele>
   </trkpt>
   <trkpt lat="37.5431" lon="-77.43031">
    <ele>47.470000000000006</ele>
   </trkpt>
   <trkpt lat="37.543060000000004" lon="-77.43043">
    <ele>47.470000000000006</ele>
   </trkpt>
   <trkpt lat="37.54243" lon="-77.43102">
    <ele>49.38000000000001</ele>
   </trkpt>
   <trkpt lat="37.542120000000004" lon="-77.43126000000001">
    <ele>51.440000000000005</ele>
   </trkpt>
   <trkpt lat="37.542" lon="-77.43137">
    <ele>51.93</ele>
   </trkpt>
   <trkpt lat="37.54173" lon="-77.43093">
    <ele>51.4</ele>
   </trkpt>
   <trkpt lat="37.542" lon="-77.43137">
    <ele>51.93</ele>
   </trkpt>
   <trkpt lat="37.542120000000004" lon="-77.43126000000001">
    <ele>51.440000000000005</ele>
   </trkpt>
   <trkpt lat="37.54231" lon="-77.43100000000001">
    <ele>50.150000000000006</ele>
   </trkpt>
   <trkpt lat="37.54274" lon="-77.43057">
    <ele>48.730000000000004</ele>
   </trkpt>
   <trkpt lat="37.54303" lon="-77.43034">
    <ele>47.470000000000006</ele>
   </trkpt>
   <trkpt lat="37.5431" lon="-77.43031">
    <ele>47.470000000000006</ele>
   </trkpt>
   <trkpt lat="37.543240000000004" lon="-77.43017">
    <ele>46.82</ele>
   </trkpt>
   <trkpt lat="37.543380000000006" lon="-77.43062">
    <ele>47.470000000000006</ele>
   </trkpt>
   <trkpt lat="37.54365" lon="-77.43118000000001">
    <ele>48.52</ele>
   </trkpt>
   <trkpt lat="37.54408000203413" lon="-77.4318999955932">
    <ele>50.580000000000005</ele>
   </trkpt>
   <trkpt lat="37.54451" lon="-77.43262">
    <ele>48.86</ele>
   </trkpt>
   <trkpt lat="37.54487" lon="-77.43310000000001">
    <ele>44.410000000000004</ele>
   </trkpt>
   <trkpt lat="37.544990000000006" lon="-77.43310000000001">
    <ele>44.39000000000001</ele>
   </trkpt>
   <trkpt lat="37.54504" lon="-77.43321">
    <ele>44.61</ele>
   </trkpt>
   <trkpt lat="37.545230000000004" lon="-77.43348">
    <ele>45.09</ele>
   </trkpt>
   <trkpt lat="37.545500000000004" lon="-77.43391000000001">
    <ele>45.44</ele>
   </trkpt>
   <trkpt lat="37.545820000000006" lon="-77.43459">
    <ele>44.77</ele>
   </trkpt>
   <trkpt lat="37.545840000000005" lon="-77.43459">
    <ele>44.77</ele>
   </trkpt>
   <trkpt lat="37.54600000000001" lon="-77.43491">
    <ele>44.97</ele>
   </trkpt>
   <trkpt lat="37.546110000000006" lon="-77.4351">
    <ele>45.61000000000001</ele>
   </trkpt>
   <trkpt lat="37.54625" lon="-77.43531">
    <ele>46.61000000000001</ele>
   </trkpt>
   <trkpt lat="37.54619" lon="-77.43538000000001">
    <ele>46.84</ele>
   </trkpt>
   <trkpt lat="37.54628" lon="-77.43553">
    <ele>47.839999999999996</ele>
   </trkpt>
   <trkpt lat="37.546310000000005" lon="-77.43568">
    <ele>49.39</ele>
   </trkpt>
   <trkpt lat="37.54688" lon="-77.43653">
    <ele>50.29</ele>
   </trkpt>
   <trkpt lat="37.54732200914893" lon="-77.43726598256433">
    <ele>50.63</ele>
   </trkpt>
   <trkpt lat="37.5477640137299" lon="-77.43800197385694">
    <ele>50.650000000000006</ele>
   </trkpt>
   <trkpt lat="37.54820601374278" lon="-77.43873797387802">
    <ele>50.28</ele>
   </trkpt>
   <trkpt lat="37.548648009187424" lon="-77.43947398262767">
    <ele>49.92</ele>
   </trkpt>
   <trkpt lat="37.54909" lon="-77.44021000000001">
    <ele>49.760000000000005</ele>
   </trkpt>
   <trkpt lat="37.5493" lon="-77.44023">
    <ele>49.71</ele>
   </trkpt>
   <trkpt lat="37.54955" lon="-77.44027000000001">
    <ele>49.900000000000006</ele>
   </trkpt>
   <trkpt lat="37.550332500588055" lon="-77.44048499322923">
    <ele>49.81000000000001</ele>
   </trkpt>
   <trkpt lat="37.551115000786304" lon="-77.44069999097276">
    <ele>48.64</ele>
   </trkpt>
   <trkpt lat="37.551897500594706" lon="-77.44091499323082">
    <ele>47.16</ele>
   </trkpt>
   <trkpt lat="37.55268" lon="-77.44113">
    <ele>44.54</ele>
   </trkpt>
   <trkpt lat="37.552780000000006" lon="-77.44111000000001">
    <ele>44.54</ele>
   </trkpt>
   <trkpt lat="37.553050000000006" lon="-77.44132">
    <ele>43.28000000000001</ele>
   </trkpt>
   <trkpt lat="37.553250000000006" lon="-77.44154">
    <ele>41.980000000000004</ele>
   </trkpt>
   <trkpt lat="37.553690004449884" lon="-77.44226665808043">
    <ele>39.120000000000005</ele>
   </trkpt>
   <trkpt lat="37.554130004446534" lon="-77.44299332474145">
    <ele>38.28</ele>
   </trkpt>
   <trkpt lat="37.554570000000005" lon="-77.44372000000001">
    <ele>37.44</ele>
   </trkpt>
   <trkpt lat="37.55471" lon="-77.44379">
    <ele>37.31</ele>
   </trkpt>
   <trkpt lat="37.554840000000006" lon="-77.44383">
    <ele>37.33</ele>
   </trkpt>
   <trkpt lat="37.555350000000004" lon="-77.44387">
    <ele>37.87</ele>
   </trkpt>
   <trkpt lat="37.555460000000004" lon="-77.44392">
    <ele>38.510000000000005</ele>
   </trkpt>
   <trkpt lat="37.55617" lon="-77.44445">
    <ele>43.29</ele>
   </trkpt>
   <trkpt lat="37.556870001608374" lon="-77.44506499423454">
    <ele>46.37</ele>
   </trkpt>
   <trkpt lat="37.557570000000005" lon="-77.44568000000001">
    <ele>47.85</ele>
   </trkpt>
   <trkpt lat="37.55826500148126" lon="-77.4462699945082">
    <ele>50.71</ele>
   </trkpt>
   <trkpt lat="37.558960000000006" lon="-77.44686">
    <ele>50.620000000000005</ele>
   </trkpt>
   <trkpt lat="37.55970000000001" lon="-77.44742000000001">
    <ele>49.74</ele>
   </trkpt>
   <trkpt lat="37.55986" lon="-77.4475">
    <ele>49.68</ele>
   </trkpt>
   <trkpt lat="37.560630000070944" lon="-77.44765999833876">
    <ele>49.92</ele>
   </trkpt>
   <trkpt lat="37.561400000000006" lon="-77.44782000000001">
    <ele>50.34</ele>
   </trkpt>
   <trkpt lat="37.56165" lon="-77.44785">
    <ele>50.410000000000004</ele>
   </trkpt>
   <trkpt lat="37.56167000000001" lon="-77.44785">
    <ele>50.410000000000004</ele>
   </trkpt>
   <trkpt lat="37.56226500015212" lon="-77.44794999921984">
    <ele>50.580000000000005</ele>
   </trkpt>
   <trkpt lat="37.56286" lon="-77.44805000000001">
    <ele>50.92000000000001</ele>
   </trkpt>
   <trkpt lat="37.562780000000004" lon="-77.44817">
    <ele>51.11</ele>
   </trkpt>
   <trkpt lat="37.56208250532096" lon="-77.44881751817017">
    <ele>51.88</ele>
   </trkpt>
   <trkpt lat="37.56138500710571" lon="-77.4494650242162">
    <ele>52.43000000000001</ele>
   </trkpt>
   <trkpt lat="37.560687505354416" lon="-77.45011251813852">
    <ele>53.35</ele>
   </trkpt>
   <trkpt lat="37.559990000000006" lon="-77.45076">
    <ele>53.09</ele>
   </trkpt>
   <trkpt lat="37.55991" lon="-77.45087000000001">
    <ele>53.09</ele>
   </trkpt>
   <trkpt lat="37.55991" lon="-77.45092000000001">
    <ele>53.11000000000001</ele>
   </trkpt>
   <trkpt lat="37.559870000000004" lon="-77.45102">
    <ele>53.13</ele>
   </trkpt>
   <trkpt lat="37.559810000000006" lon="-77.45104">
    <ele>53.13</ele>
   </trkpt>
   <trkpt lat="37.559760000000004" lon="-77.45103">
    <ele>53.1</ele>
   </trkpt>
   <trkpt lat="37.55962" lon="-77.45105000000001">
    <ele>52.89000000000001</ele>
   </trkpt>
   <trkpt lat="37.55957" lon="-77.45108">
    <ele>52.74</ele>
   </trkpt>
   <trkpt lat="37.558911438068684" lon="-77.45169288964854">
    <ele>53.13</ele>
   </trkpt>
   <trkpt lat="37.55825287296935" lon="-77.45230576846308">
    <ele>53.71000000000001</ele>
   </trkpt>
   <trkpt lat="37.557594304702135" lon="-77.45291863644402">
    <ele>55.74</ele>
   </trkpt>
   <trkpt lat="37.55693573326718" lon="-77.45353149359178">
    <ele>57.82</ele>
   </trkpt>
   <trkpt lat="37.55627715866461" lon="-77.45414433990675">
    <ele>58.72</ele>
   </trkpt>
   <trkpt lat="37.55561858089455" lon="-77.45475717538932">
    <ele>59.49000000000001</ele>
   </trkpt>
   <trkpt lat="37.55496" lon="-77.45537">
    <ele>60.13</ele>
   </trkpt>
   <trkpt lat="37.55449" lon="-77.45583">
    <ele>60.58</ele>
   </trkpt>
   <trkpt lat="37.553940002066575" lon="-77.45633000741816">
    <ele>61.59</ele>
   </trkpt>
   <trkpt lat="37.553390002024734" lon="-77.4568300074561">
    <ele>61.92</ele>
   </trkpt>
   <trkpt lat="37.55284" lon="-77.45733000000001">
    <ele>62.77</ele>
   </trkpt>
   <trkpt lat="37.5527" lon="-77.45757">
    <ele>62.77</ele>
   </trkpt>
   <trkpt lat="37.55257" lon="-77.45774">
    <ele>63.12000000000001</ele>
   </trkpt>
   <trkpt lat="37.552600000000005" lon="-77.45783">
    <ele>63.160000000000004</ele>
   </trkpt>
   <trkpt lat="37.552490000000006" lon="-77.45796">
    <ele>63.24</ele>
   </trkpt>
   <trkpt lat="37.552240000000005" lon="-77.45813000000001">
    <ele>63.33000000000001</ele>
   </trkpt>
   <trkpt lat="37.5521" lon="-77.45818000000001">
    <ele>63.33000000000001</ele>
   </trkpt>
   <trkpt lat="37.55194" lon="-77.45828">
    <ele>63.40000000000001</ele>
   </trkpt>
   <trkpt lat="37.55133" lon="-77.45884000000001">
    <ele>63.80000000000001</ele>
   </trkpt>
   <trkpt lat="37.55122" lon="-77.45871000000001">
    <ele>63.72</ele>
   </trkpt>
   <trkpt lat="37.550775000842606" lon="-77.45827499744652">
    <ele>62.800000000000004</ele>
   </trkpt>
   <trkpt lat="37.55033" lon="-77.45784">
    <ele>62.330000000000005</ele>
   </trkpt>
   <trkpt lat="37.54993" lon="-77.45743">
    <ele>61.88</ele>
   </trkpt>
   <trkpt lat="37.54972" lon="-77.45716">
    <ele>61.64000000000001</ele>
   </trkpt>
   <trkpt lat="37.549382508765106" lon="-77.4563274886867">
    <ele>61.39000000000001</ele>
   </trkpt>
   <trkpt lat="37.549045011685436" lon="-77.45549498491245">
    <ele>60.84</ele>
   </trkpt>
   <trkpt lat="37.548707508761126" lon="-77.45466248867722">
    <ele>60.24</ele>
   </trkpt>
   <trkpt lat="37.548370000000006" lon="-77.45383000000001">
    <ele>59.95</ele>
   </trkpt>
   <trkpt lat="37.54802" lon="-77.45289000000001">
    <ele>59.230000000000004</ele>
   </trkpt>
   <trkpt lat="37.548030000000004" lon="-77.45277">
    <ele>59.13</ele>
   </trkpt>
   <trkpt lat="37.54774500230194" lon="-77.45203999734967">
    <ele>58.5</ele>
   </trkpt>
   <trkpt lat="37.54746" lon="-77.45131">
    <ele>58.18</ele>
   </trkpt>
   <trkpt lat="37.547740000000005" lon="-77.45104">
    <ele>58.02</ele>
   </trkpt>
   <trkpt lat="37.54816" lon="-77.45066000000001">
    <ele>57.760000000000005</ele>
   </trkpt>
   <trkpt lat="37.54767000287763" lon="-77.4498399946807">
    <ele>56.02</ele>
   </trkpt>
   <trkpt lat="37.547180000000004" lon="-77.44902">
    <ele>54.050000000000004</ele>
   </trkpt>
   <trkpt lat="37.54717" lon="-77.44890000000001">
    <ele>53.81</ele>
   </trkpt>
   <trkpt lat="37.5471" lon="-77.44879">
    <ele>53.660000000000004</ele>
   </trkpt>
   <trkpt lat="37.546733336505866" lon="-77.44817999405662">
    <ele>51.82000000000001</ele>
   </trkpt>
   <trkpt lat="37.54636666987379" lon="-77.44756999411423">
    <ele>50.830000000000005</ele>
   </trkpt>
   <trkpt lat="37.54600000000001" lon="-77.44696">
    <ele>50.11</ele>
   </trkpt>
   <trkpt lat="37.545770000000005" lon="-77.44657000000001">
    <ele>51.28000000000001</ele>
   </trkpt>
   <trkpt lat="37.54562" lon="-77.44642">
    <ele>51.28000000000001</ele>
   </trkpt>
   <trkpt lat="37.54554" lon="-77.44631000000001">
    <ele>51.980000000000004</ele>
   </trkpt>
   <trkpt lat="37.54501000331473" lon="-77.4454199936304">
    <ele>54.85</ele>
   </trkpt>
   <trkpt lat="37.54448" lon="-77.44453">
    <ele>56.77000000000001</ele>
   </trkpt>
   <trkpt lat="37.544450000000005" lon="-77.44448000000001">
    <ele>56.82</ele>
   </trkpt>
   <trkpt lat="37.544430000000006" lon="-77.44436">
    <ele>56.82</ele>
   </trkpt>
   <trkpt lat="37.54402000405241" lon="-77.44366665903833">
    <ele>56.07</ele>
   </trkpt>
   <trkpt lat="37.54361000405104" lon="-77.44297332570278">
    <ele>55.75000000000001</ele>
   </trkpt>
   <trkpt lat="37.543200000000006" lon="-77.44228000000001">
    <ele>56.150000000000006</ele>
   </trkpt>
   <trkpt lat="37.54266859121155" lon="-77.44139567646845">
    <ele>56.36000000000001</ele>
   </trkpt>
   <trkpt lat="37.54213717582863" lon="-77.44051136554344">
    <ele>54.71</ele>
   </trkpt>
   <trkpt lat="37.54160575385145" lon="-77.43962706722475">
    <ele>54.82000000000001</ele>
   </trkpt>
   <trkpt lat="37.541074325280235" lon="-77.43874278151209">
    <ele>54.44</ele>
   </trkpt>
   <trkpt lat="37.54054289011521" lon="-77.4378585084052">
    <ele>49.25</ele>
   </trkpt>
   <trkpt lat="37.540011448356594" lon="-77.43697424790382">
    <ele>45.01</ele>
   </trkpt>
   <trkpt lat="37.539480000000005" lon="-77.43609000000001">
    <ele>43.27</ele>
   </trkpt>
   <trkpt lat="37.53911" lon="-77.43547000000001">
    <ele>41.660000000000004</ele>
   </trkpt>
   <trkpt lat="37.539030000000004" lon="-77.43541">
    <ele>41.59</ele>
   </trkpt>
   <trkpt lat="37.53873" lon="-77.43569000000001">
    <ele>38.31</ele>
   </trkpt>
   <trkpt lat="37.53822000610869" lon="-77.43483665494111">
    <ele>36.49</ele>
   </trkpt>
   <trkpt lat="37.53771000607708" lon="-77.43398332155508">
    <ele>34.84</ele>
   </trkpt>
   <trkpt lat="37.537200000000006" lon="-77.43313">
    <ele>30.470000000000002</ele>
   </trkpt>
   <trkpt lat="37.537130000000005" lon="-77.43319000000001">
    <ele>30.54</ele>
   </trkpt>
   <trkpt lat="37.53676" lon="-77.43256000000001">
    <ele>27.450000000000003</ele>
   </trkpt>
   <trkpt lat="37.53642" lon="-77.43179">
    <ele>22.240000000000002</ele>
   </trkpt>
   <trkpt lat="37.53606000293041" lon="-77.43095999605302">
    <ele>19.22</ele>
   </trkpt>
   <trkpt lat="37.535700000000006" lon="-77.43013">
    <ele>13.99</ele>
   </trkpt>
   <trkpt lat="37.53544000092912" lon="-77.4296549983035">
    <ele>10.950000000000001</ele>
   </trkpt>
   <trkpt lat="37.535180000000004" lon="-77.42918">
    <ele>9.32</ele>
   </trkpt>
   <trkpt lat="37.535140000000006" lon="-77.42907000000001">
    <ele>9.32</ele>
   </trkpt>
   <trkpt lat="37.534760001579166" lon="-77.42844499670392">
    <ele>7.11</ele>
   </trkpt>
   <trkpt lat="37.534380000000006" lon="-77.42782000000001">
    <ele>6.85</ele>
   </trkpt>
   <trkpt lat="37.53425" lon="-77.42778000000001">
    <ele>6.970000000000001</ele>
   </trkpt>
   <trkpt lat="37.533845000590766" lon="-77.42817000216654">
    <ele>7.12</ele>
   </trkpt>
   <trkpt lat="37.533440000000006" lon="-77.42856">
    <ele>7.48</ele>
   </trkpt>
   <trkpt lat="37.53397500329397" lon="-77.42944499363786">
    <ele>6.970000000000001</ele>
   </trkpt>
   <trkpt lat="37.534510000000004" lon="-77.43033000000001">
    <ele>8.57</ele>
   </trkpt>
   <trkpt lat="37.53503500270812" lon="-77.43113999420817">
    <ele>11.28</ele>
   </trkpt>
   <trkpt lat="37.535560000000004" lon="-77.43195">
    <ele>15.370000000000001</ele>
   </trkpt>
   <trkpt lat="37.53555" lon="-77.43196">
    <ele>15.370000000000001</ele>
   </trkpt>
   <trkpt lat="37.535160000000005" lon="-77.43219">
    <ele>14.22</ele>
   </trkpt>
   <trkpt lat="37.534530000000004" lon="-77.43245">
    <ele>11.61</ele>
   </trkpt>
   <trkpt lat="37.53416" lon="-77.43255">
    <ele>10.64</ele>
   </trkpt>
   <trkpt lat="37.533390000000004" lon="-77.43274000000001">
    <ele>9.3</ele>
   </trkpt>
   <trkpt lat="37.53342" lon="-77.43283000000001">
    <ele>8.820000000000002</ele>
   </trkpt>
   <trkpt lat="37.53282" lon="-77.433">
    <ele>8.71</ele>
   </trkpt>
   <trkpt lat="37.53255" lon="-77.43311000000001">
    <ele>8.58</ele>
   </trkpt>
   <trkpt lat="37.53173" lon="-77.43328000000001">
    <ele>8.51</ele>
   </trkpt>
   <trkpt lat="37.53139" lon="-77.43338">
    <ele>8.81</ele>
   </trkpt>
   <trkpt lat="37.53066000060629" lon="-77.4336500052882">
    <ele>9.06</ele>
   </trkpt>
   <trkpt lat="37.52993000059791" lon="-77.43392000529121">
    <ele>8.66</ele>
   </trkpt>
   <trkpt lat="37.5292" lon="-77.43419">
    <ele>8.43</ele>
   </trkpt>
   <trkpt lat="37.528560000497784" lon="-77.43444333769766">
    <ele>8.64</ele>
   </trkpt>
   <trkpt lat="37.52792000045443" lon="-77.4346966710481">
    <ele>8.59</ele>
   </trkpt>
   <trkpt lat="37.527280000000005" lon="-77.43495">
    <ele>8.520000000000001</ele>
   </trkpt>
   <trkpt lat="37.52687" lon="-77.43507000000001">
    <ele>8.180000000000001</ele>
   </trkpt>
   <trkpt lat="37.526770000000006" lon="-77.43513">
    <ele>8.13</ele>
   </trkpt>
   <trkpt lat="37.526700000000005" lon="-77.43521000000001">
    <ele>8.030000000000001</ele>
   </trkpt>
   <trkpt lat="37.52622" lon="-77.4359">
    <ele>7.470000000000001</ele>
   </trkpt>
   <trkpt lat="37.526250000000005" lon="-77.43595">
    <ele>7.470000000000001</ele>
   </trkpt>
   <trkpt lat="37.52619" lon="-77.43605000000001">
    <ele>7.470000000000001</ele>
   </trkpt>
   <trkpt lat="37.526140000000005" lon="-77.43603">
    <ele>7.490000000000001</ele>
   </trkpt>
   <trkpt lat="37.52595" lon="-77.43636000000001">
    <ele>7.620000000000001</ele>
   </trkpt>
   <trkpt lat="37.52615" lon="-77.43657">
    <ele>7.620000000000001</ele>
   </trkpt>
   <trkpt lat="37.526210000000006" lon="-77.43678000000001">
    <ele>7.82</ele>
   </trkpt>
   <trkpt lat="37.52626" lon="-77.43788">
    <ele>8.530000000000001</ele>
   </trkpt>
   <trkpt lat="37.5259000013763" lon="-77.43846000286638">
    <ele>9.48</ele>
   </trkpt>
   <trkpt lat="37.52554000000001" lon="-77.43904">
    <ele>10.93</ele>
   </trkpt>
   <trkpt lat="37.52499002851863" lon="-77.4399070575272">
    <ele>12.72</ele>
   </trkpt>
   <trkpt lat="37.52444005069882" lon="-77.44077410227038">
    <ele>14.97</ele>
   </trkpt>
   <trkpt lat="37.52389006654081" lon="-77.44164113422984">
    <ele>16.810000000000002</ele>
   </trkpt>
   <trkpt lat="37.523340076044796" lon="-77.44250815340585">
    <ele>20.740000000000002</ele>
   </trkpt>
   <trkpt lat="37.522790079211006" lon="-77.44337515979876">
    <ele>26.410000000000004</ele>
   </trkpt>
   <trkpt lat="37.52224007603967" lon="-77.44424215340881">
    <ele>30.37</ele>
   </trkpt>
   <trkpt lat="37.521690066531" lon="-77.44510913423633">
    <ele>30.67</ele>
   </trkpt>
   <trkpt lat="37.521140050685204" lon="-77.4459761022816">
    <ele>28.98</ele>
   </trkpt>
   <trkpt lat="37.520590028502504" lon="-77.44684305754491">
    <ele>29.620000000000005</ele>
   </trkpt>
   <trkpt lat="37.52004" lon="-77.44771">
    <ele>31.01</ele>
   </trkpt>
   <trkpt lat="37.52035" lon="-77.44801000000001">
    <ele>31.52</ele>
   </trkpt>
  </trkseg>
 </trk>
</gpx>
